IRIDIUM 116             
1 43072U 17083C   23263.87396687  .00000498  00000+0  17088-3 0  9992
2 43072  86.4016  20.0655 0002097  98.4946 261.6487 14.34221035300797
IRIDIUM 130             
1 43073U 17083D   23263.84225621  .00000440  00000+0  14990-3 0  9995
2 43073  86.4027  20.2564 0002244  95.8093 264.3358 14.34214776300734
IRIDIUM 151             
1 43074U 17083E   23263.60758287 -.00000904  00000+0 -32989-3 0  9994
2 43074  86.4017  20.2119 0002061  96.4739 263.6691 14.34214657300720
IRIDIUM 134             
1 43075U 17083F   23263.85494712  .00000039  00000+0  67502-5 0  9990
2 43075  86.4020  20.1025 0002050  92.0802 268.0629 14.34218365300721
IRIDIUM 137             
1 43076U 17083G   23263.86762829  .00000534  00000+0  18352-3 0  9996
2 43076  86.4020  20.1702 0002055 101.5874 258.5552 14.34218158300790
IRIDIUM 141             
1 43077U 17083H   23263.86128929  .00000506  00000+0  17360-3 0  9991
2 43077  86.4017  20.0601 0002297  95.5140 264.6318 14.34219459300793
IRIDIUM 153             
1 43078U 17083J   23263.81346457 -.00000132  00000+0 -54235-4 0  9995
2 43078  86.4027 348.5569 0002374  89.9950 270.1518 14.34215948301893
IRIDIUM 131             
1 43079U 17083K   23263.70906403  .00000394  00000+0  13379-3 0  9998
2 43079  86.4023  20.2429 0002229  93.4669 266.6782 14.34220666300700
